LEMUR-2-PETERG          
1 42841U 17042S   26068.48235713  .00023240  00000+0  81076-3 0  9993
2 42841  97.3980 253.6596 0003700 341.6938  18.4169 15.29611459473171
STARLINK-2538           
1 48300U 21036AA  26068.32147148 -.00002143  00000+0 -60256-4 0  9993
2 48300  53.1610  89.8970 0001232  98.4290 261.6850 15.30199988268179
