[{"OBJECT_NAME":"LEMUR-2-PETERG","OBJECT_ID":"2017-042S","EPOCH":"2026-03-09T11:34:35.656032","MEAN_MOTION":15.29611459,"ECCENTRICITY":0.00037,"INCLINATION":97.398,"RA_OF_ASC_NODE":253.6596,"ARG_OF_PERICENTER":341.6938,"MEAN_ANOMALY":18.4169,"EPHEMERIS_TYPE":0,"CLASSIFICATION_TYPE":"U","NORAD_CAT_ID":42841,"ELEMENT_SET_NO":999,"REV_AT_EPOCH":47317,"BSTAR":0.00081076471,"MEAN_MOTION_DOT":0.0002324,"MEAN_MOTION_DDOT":0},{"OBJECT_NAME":"STARLINK-2538","OBJECT_ID":"2021-036AA","EPOCH":"2026-03-09T07:42:55.135872","MEAN_MOTION":15.30199988,"ECCENTRICITY":0.00012328,"INCLINATION":53.161,"RA_OF_ASC_NODE":89.897,"ARG_OF_PERICENTER":98.429,"MEAN_ANOMALY":261.685,"EPHEMERIS_TYPE":0,"CLASSIFICATION_TYPE":"U","NORAD_CAT_ID":48300,"ELEMENT_SET_NO":999,"REV_AT_EPOCH":26817,"BSTAR":-6.025602e-5,"MEAN_MOTION_DOT":-2.143e-5,"MEAN_MOTION_DDOT":0}]
